{"type": "FeatureCollection", "features": [ {"type": "Feature", "properties": {"norad_id": 41836, "name": "HIMAWARI-9", "group": "weather", "lat": -0.009255533020716479, "lon": 5.883174123457106, "alt_km": 35786.62619525983, "timestamp": "2025-12-09T09:46:47.290497+00:00", "meta": {"OBJECT_NAME": "HIMAWARI-9", "OBJECT_ID": "2016-064A", "EPOCH": "2025-12-09T03:58:11.773056", "MEAN_MOTION": 1.00272664, "ECCENTRICITY": 0.0001257, "INCLINATION": 0.0225, "RA_OF_ASC_NODE": 72.887, "ARG_OF_PERICENTER": 194.8332, "MEAN_ANOMALY": 10.7648, "EPHEMERIS_TYPE": 0, "CLASSIFICATION_TYPE": "U", "NORAD_CAT_ID": 41836, "ELEMENT_SET_NO": 999, "REV_AT_EPOCH": 3330, "BSTAR": 0, "MEAN_MOTION_DOT": -2.72e-06, "MEAN_MOTION_DDOT": 0}, "tle": {"line1": "1 41836U 16064A   25343.16541404 -.00000272  00000+0  00000+0 0  9991", "line2": "2 41836   0.0225  72.8870 0001257 194.8332  10.7648  1.00272664 33303"}}, "geometry": {"type": "Point", "coordinates": [5.883174123457106, -0.009255533020716479]}}, {"type": "Feature", "properties": {"norad_id": 41866, "name": "GOES 16", "group": "weather", "lat": 0.03703330958052797, "lon": 120.39589480429194, "alt_km": 35797.49728603846, "timestamp": "2025-12-09T09:46:47.290510+00:00", "meta": {"OBJECT_NAME": "GOES 16", "OBJECT_ID": "2016-071A", "EPOCH": "2025-12-09T04:35:00.240864", "MEAN_MOTION": 1.00270898, "ECCENTRICITY": 0.0003402, "INCLINATION": 0.0692, "RA_OF_ASC_NODE": 102.1857, "ARG_OF_PERICENTER": 159.0527, "MEAN_ANOMALY": 141.0269, "EPHEMERIS_TYPE": 0, "CLASSIFICATION_TYPE": "U", "NORAD_CAT_ID": 41866, "ELEMENT_SET_NO": 999, "REV_AT_EPOCH": 3319, "BSTAR": 0, "MEAN_MOTION_DOT": -8.9e-07, "MEAN_MOTION_DDOT": 0}, "tle": {"line1": "1 41866U 16071A   25343.19097501 -.00000089  00000+0  00000+0 0  9995", "line2": "2 41866   0.0692 102.1857 0003402 159.0527 141.0269  1.00270898 33190"}}, "geometry": {"type": "Point", "coordinates": [120.39589480429194, 0.03703330958052797]}}, {"type": "Feature", "properties": {"norad_id": 41882, "name": "FENGYUN 4A", "group": "weather", "lat": -1.8363345896239838, "lon": -11.015212439207588, "alt_km": 35796.80836883184, "timestamp": "2025-12-09T09:46:47.290523+00:00", "meta": {"OBJECT_NAME": "FENGYUN 4A", "OBJECT_ID": "2016-077A", "EPOCH": "2025-12-08T17:16:38.775936", "MEAN_MOTION": 1.00275455, "ECCENTRICITY": 0.00049335, "INCLINATION": 1.839, "RA_OF_ASC_NODE": 82.4323, "ARG_OF_PERICENTER": 143.079, "MEAN_ANOMALY": 235.2066, "EPHEMERIS_TYPE": 0, "CLASSIFICATION_TYPE": "U", "NORAD_CAT_ID": 41882, "ELEMENT_SET_NO": 999, "REV_AT_EPOCH": 3302, "BSTAR": 0, "MEAN_MOTION_DOT": -3.55e-06, "MEAN_MOTION_DDOT": 0}, "tle": {"line1": "1 41882U 16077A   25342.71989324 -.00000355  00000+0  00000+0 0  9995", "line2": "2 41882   1.8390  82.4323 0004933 143.0790 235.2066  1.00275455 33022"}}, "geometry": {"type": "Point", "coordinates": [-11.015212439207588, -1.8363345896239838]}}, {"type": "Feature", "properties": {"norad_id": 41884, "name": "CYGFM05", "group": "weather", "lat": 27.39058605366617, "lon": -158.97410096231383, "alt_km": 413.0535528249393, "timestamp": "2025-12-09T09:46:47.290535+00:00", "meta": {"OBJECT_NAME": "CYGFM05", "OBJECT_ID": "2016-078A", "EPOCH": "2025-12-08T16:12:15.134688", "MEAN_MOTION": 15.47410776, "ECCENTRICITY": 0.00096392, "INCLINATION": 34.9598, "RA_OF_ASC_NODE": 73.6774, "ARG_OF_PERICENTER": 145.1655, "MEAN_ANOMALY": 214.9699, "EPHEMERIS_TYPE": 0, "CLASSIFICATION_TYPE": "U", "NORAD_CAT_ID": 41884, "ELEMENT_SET_NO": 999, "REV_AT_EPOCH": 49913, "BSTAR": 0.00049402945, "MEAN_MOTION_DOT": 0.00026159, "MEAN_MOTION_DDOT": 0}, "tle": {"line1": "1 41884U 16078A   25342.67517517  .00026159  00000+0  49403-3 0  9997", "line2": "2 41884  34.9598  73.6774 0009639 145.1655 214.9699 15.47410776499131"}}, "geometry": {"type": "Point", "coordinates": [-158.97410096231383, 27.39058605366617]}}, {"type": "Feature", "properties": {"norad_id": 41885, "name": "CYGFM04", "group": "weather", "lat": -14.928648781354678, "lon": 21.312653467610655, "alt_km": 422.28860985810115, "timestamp": "2025-12-09T09:46:47.290547+00:00", "meta": {"OBJECT_NAME": "CYGFM04", "OBJECT_ID": "2016-078B", "EPOCH": "2025-12-08T13:48:05.285088", "MEAN_MOTION": 15.50097993, "ECCENTRICITY": 0.0009015, "INCLINATION": 34.9353, "RA_OF_ASC_NODE": 49.227, "ARG_OF_PERICENTER": 173.4437, "MEAN_ANOMALY": 186.6404, "EPHEMERIS_TYPE": 0, "CLASSIFICATION_TYPE": "U", "NORAD_CAT_ID": 41885, "ELEMENT_SET_NO": 999, "REV_AT_EPOCH": 49929, "BSTAR": 0.00050242, "MEAN_MOTION_DOT": 0.00029253, "MEAN_MOTION_DDOT": 0}, "tle": {"line1": "1 41885U 16078B   25342.57506117  .00029253  00000+0  50242-3 0  9992", "line2": "2 41885  34.9353  49.2270 0009015 173.4437 186.6404 15.50097993499293"}}, "geometry": {"type": "Point", "coordinates": [21.312653467610655, -14.928648781354678]}}, {"type": "Feature", "properties": {"norad_id": 41886, "name": "CYGFM02", "group": "weather", "lat": -16.743444766038184, "lon": 16.615235235426088, "alt_km": 419.3069132707251, "timestamp": "2025-12-09T09:46:47.290558+00:00", "meta": {"OBJECT_NAME": "CYGFM02", "OBJECT_ID": "2016-078C", "EPOCH": "2025-12-08T13:50:02.361408", "MEAN_MOTION": 15.51459598, "ECCENTRICITY": 0.0010683, "INCLINATION": 34.9442, "RA_OF_ASC_NODE": 47.5977, "ARG_OF_PERICENTER": 172.6655, "MEAN_ANOMALY": 187.4225, "EPHEMERIS_TYPE": 0, "CLASSIFICATION_TYPE": "U", "NORAD_CAT_ID": 41886, "ELEMENT_SET_NO": 999, "REV_AT_EPOCH": 49942, "BSTAR": 0.00050542, "MEAN_MOTION_DOT": 0.00030924, "MEAN_MOTION_DDOT": 0}, "tle": {"line1": "1 41886U 16078C   25342.57641622  .00030924  00000+0  50542-3 0  9994", "line2": "2 41886  34.9442  47.5977 0010683 172.6655 187.4225 15.51459598499423"}}, "geometry": {"type": "Point", "coordinates": [16.615235235426088, -16.743444766038184]}}, {"type": "Feature", "properties": {"norad_id": 41887, "name": "CYGFM01", "group": "weather", "lat": 9.120689410555798, "lon": -122.02451325116701, "alt_km": 414.28273608288055, "timestamp": "2025-12-09T09:46:47.290569+00:00", "meta": {"OBJECT_NAME": "CYGFM01", "OBJECT_ID": "2016-078D", "EPOCH": "2025-12-08T16:03:02.145312", "MEAN_MOTION": 15.47982626, "ECCENTRICITY": 0.00091843, "INCLINATION": 34.9428, "RA_OF_ASC_NODE": 76.0976, "ARG_OF_PERICENTER": 136.6674, "MEAN_ANOMALY": 223.4771, "EPHEMERIS_TYPE": 0, "CLASSIFICATION_TYPE": "U", "NORAD_CAT_ID": 41887, "ELEMENT_SET_NO": 999, "REV_AT_EPOCH": 49907, "BSTAR": 0.00050735925, "MEAN_MOTION_DOT": 0.00027409, "MEAN_MOTION_DDOT": 0}, "tle": {"line1": "1 41887U 16078D   25342.66877483  .00027409  00000+0  50736-3 0  9990", "line2": "2 41887  34.9428  76.0976 0009184 136.6674 223.4771 15.47982626499075"}}, "geometry": {"type": "Point", "coordinates": [-122.02451325116701, 9.120689410555798]}}, {"type": "Feature", "properties": {"norad_id": 41888, "name": "CYGFM08", "group": "weather", "lat": -10.136386304050395, "lon": -110.867173353622, "alt_km": 412.5518837514828, "timestamp": "2025-12-09T09:46:47.290580+00:00", "meta": {"OBJECT_NAME": "CYGFM08", "OBJECT_ID": "2016-078E", "EPOCH": "2025-12-08T14:22:18.111936", "MEAN_MOTION": 15.49171763, "ECCENTRICITY": 0.0011072, "INCLINATION": 34.9463, "RA_OF_ASC_NODE": 59.5943, "ARG_OF_PERICENTER": 161.1133, "MEAN_ANOMALY": 199.0001, "EPHEMERIS_TYPE": 0, "CLASSIFICATION_TYPE": "U", "NORAD_CAT_ID": 41888, "ELEMENT_SET_NO": 999, "REV_AT_EPOCH": 49929, "BSTAR": 0.00050019, "MEAN_MOTION_DOT": 0.00028201, "MEAN_MOTION_DDOT": 0}, "tle": {"line1": "1 41888U 16078E   25342.59882074  .00028201  00000+0  50019-3 0  9990", "line2": "2 41888  34.9463  59.5943 0011072 161.1133 199.0001 15.49171763499299"}}, "geometry": {"type": "Point", "coordinates": [-110.867173353622, -10.136386304050395]}}, {"type": "Feature", "properties": {"norad_id": 41890, "name": "CYGFM07", "group": "weather", "lat": 0.8211053672649756, "lon": -137.8775881708578, "alt_km": 409.71321855321366, "timestamp": "2025-12-09T09:46:47.290591+00:00", "meta": {"OBJECT_NAME": "CYGFM07", "OBJECT_ID": "2016-078G", "EPOCH": "2025-12-09T04:22:31.842336", "MEAN_MOTION": 15.49776848, "ECCENTRICITY": 0.0009532, "INCLINATION": 34.9479, "RA_OF_ASC_NODE": 44.7742, "ARG_OF_PERICENTER": 184.2651, "MEAN_ANOMALY": 175.7991, "EPHEMERIS_TYPE": 0, "CLASSIFICATION_TYPE": "U", "NORAD_CAT_ID": 41890, "ELEMENT_SET_NO": 999, "REV_AT_EPOCH": 49940, "BSTAR": 0.00045753, "MEAN_MOTION_DOT": 0.00026327, "MEAN_MOTION_DDOT": 0}, "tle": {"line1": "1 41890U 16078G   25343.18231299  .00026327  00000+0  45753-3 0  9992", "line2": "2 41890  34.9479  44.7742 0009532 184.2651 175.7991 15.49776848499408"}}, "geometry": {"type": "Point", "coordinates": [-137.8775881708578, 0.8211053672649756]}}, {"type": "Feature", "properties": {"norad_id": 41891, "name": "CYGFM03", "group": "weather", "lat": 8.145579159438325, "lon": 57.04370241700752, "alt_km": 420.9180156610073, "timestamp": "2025-12-09T09:46:47.290603+00:00", "meta": {"OBJECT_NAME": "CYGFM03", "OBJECT_ID": "2016-078H", "EPOCH": "2025-12-08T15:09:54.108000", "MEAN_MOTION": 15.49651894, "ECCENTRICITY": 0.00087312, "INCLINATION": 34.9436, "RA_OF_ASC_NODE": 50.2977, "ARG_OF_PERICENTER": 166.471, "MEAN_ANOMALY": 193.6247, "EPHEMERIS_TYPE": 0, "CLASSIFICATION_TYPE": "U", "NORAD_CAT_ID": 41891, "ELEMENT_SET_NO": 999, "REV_AT_EPOCH": 49929, "BSTAR": 0.00050514464, "MEAN_MOTION_DOT": 0.00028945, "MEAN_MOTION_DDOT": 0}, "tle": {"line1": "1 41891U 16078H   25342.63187625  .00028945  00000+0  50514-3 0  9994", "line2": "2 41891  34.9436  50.2977 0008731 166.4710 193.6247 15.49651894499295"}}, "geometry": {"type": "Point", "coordinates": [57.04370241700752, 8.145579159438325]}}]}